SL-16 R/B               
1 26070U 00006B   21290.28877809  .00000080  00000-0  65383-4 0  9991
2 26070  71.0028 230.2139 0014331 105.5784 254.6922 14.15474873121487
MTI                     
1 26102U 00014A   21290.23113372  .00025151  00000-0  25813-3 0  9998
2 26102  97.4565 203.4548 0004417 202.4811 157.6254 15.64916767200362
TITAN 4B R/B            
1 26474U 00047B   21290.15456419  .00000409  00000-0  45993-4 0  9990
2 26474  67.9935 175.7425 0054344  17.3839 342.9147 14.96256433152120
ENVISAT                 
1 27386U 02009A   21289.59507303  .00000063  00000-0  34371-4 0  9992
2 27386  98.1597 277.5237 0001217  89.9831  20.5166 14.38047595 28487
IDEFIX & ARIANE 42P R/B 
1 27422U 02021B   21289.35343832  .00000047  00000-0  35056-4 0  9999
2 27422  98.4158 238.1234 0011142 234.0259 125.9891 14.29335438 14586
AQUA                    
1 27424U 02022A   21289.60915900  .00000205  00000-0  55604-4 0  9998
2 27424  98.2185 229.2404 0000511  52.6523 120.4321 14.57117902 34712
CZ-4B R/B               
1 27432U 02024C   21289.34682647 -.00000006  00000-0  21033-4 0  9998
2 27432  99.0828 305.7545 0049518 245.2598 125.2961 14.14115650  2328
MIDORI II (ADEOS-II)    
1 27597U 02056A   21289.35343887  .00000084  00000-0  51881-4 0  9995
2 27597  98.5752 232.3024 0001711  48.3661 311.7666 14.27522631981137
H-2A R/B                
1 27601U 02056E   21289.27584441 -.00000020  00000-0  76313-5 0  9994
2 27601  98.1858 304.7710 0070868 269.6610 100.0208 14.32021739984226
CZ-4B R/B               
1 28059U 03049C   21290.24066875  .00000075  00000-0  29682-4 0  9995
2 28059  98.4971 218.5383 0051246  90.4598 270.2470 14.52675108953487
CZ-2C R/B               
1 28222U 04012C   21289.30206042  .00001322  00000-0  81031-4 0  9997
2 28222  97.7427 261.4253 0046685 166.1129 331.1298 15.11121500959346
SL-16 R/B               
1 28353U 04021B   21289.33714162 -.00000291  00000-0 -12749-3 0  9997
2 28353  71.0029   0.2808 0007137 302.3065  57.7365 14.14246495895833
CZ-4B R/B               
1 28415U 04035C   21289.06576116  .00001097  00000-0  74757-4 0  9997
2 28415  97.5524 329.4929 0052278 134.2464 226.3073 15.07250607936778
CZ-2C R/B               
1 28480U 04046B   21289.25776375 -.00000017  00000-0  87677-5 0  9999
2 28480  98.0528 291.5280 0140910 225.5004 144.4703 14.25765264879645
ARIANE 5 R/B            
1 28499U 04049H   21289.31400921  .00000242  00000-0  36941-4 0  9996
2 28499  98.0793  39.2490 0092798 142.5764 278.3488 14.80169868907963
CZ-2D R/B               
1 28738U 05024B   21289.31324264  .00001145  00000-0  69085-4 0  9999
2 28738  97.3594 301.0647 0010380 309.2282  50.8028 15.12608956894834
SUZAKU (ASTRO-EII)      
1 28773U 05025A   21289.57512347  .00002959  00000-0  13437-3 0  9991
2 28773  31.3810  93.0918 0004397  61.9066 298.2025 15.18813643897873
ALOS (DAICHI)           
1 28931U 06002A   21290.37739088  .00000289  00000-0  65221-4 0  9999
2 28931  97.9016 259.8688 0001983  36.3016 323.8329 14.62898574838882
H-2A R/B                
1 28932U 06002B   21289.31392876  .00000462  00000-0  47934-4 0  9996
2 28932  98.3224 313.2207 0088212 171.1122 199.6557 14.92713438853615
AKARI (ASTRO-F)         
1 28939U 06005A   21289.15979054  .00008185  00000-0  19333-3 0  9998
2 28939  98.2343 327.1651 0085531  61.1856 299.7941 15.38360310855454
RESURS-DK 1             
1 29228U 06021A   21289.36275642  .00000412  00000-0  38002-4 0  9993
2 29228  69.9375  30.8079 0001737  48.5635 311.5674 15.02775469845707
GENESIS 1               
1 29252U 06029A   21289.18360854  .00001178  00000-0  64104-4 0  9990
2 29252  64.5199 151.9995 0055018 298.7984  60.7620 15.18957526841857
CZ-4B R/B               
1 29507U 06046C   21289.34705684  .00000786  00000-0  64845-4 0  9990
2 29507  97.7657 315.0970 0047933 331.4537  28.4063 15.01179398818243
CZ-2C R/B               
1 31114U 07010B   21290.28470726 -.00000059  00000-0 -87073-5 0  9994
2 31114  98.2318 115.4353 0058639 287.7613  71.7171 14.19376176752070
COSMO-SKYMED 1          
1 31598U 07023A   21290.43148312  .00000572  00000-0  78441-4 0  9990
2 31598  97.8922 112.6194 0001427  92.2803 267.8547 14.82153995776968
GENESIS 2               
1 31789U 07028A   21289.15639660  .00001388  00000-0  77726-4 0  9996
2 31789  64.4927 194.7124 0018832   6.6700 353.4670 15.17996403788805
COSMOS 2428             
1 31792U 07029A   21290.29732545  .00000320  00000-0  19968-3 0  9992
2 31792  70.9171 330.0404 0005919  44.6944 315.4653 14.12376370737602
SL-16 R/B               
1 31793U 07029B   21289.49522397 -.00000220  00000-0 -89729-4 0  9999
2 31793  70.9742 305.3540 0002872 268.1989 243.8368 14.14447258738457
KORONAS-FOTON           
1 33504U 09003A   21290.19544905  .00000976  00000-0  48694-4 0  9995
2 33504  82.4386  98.3307 0019806  38.2059 322.0573 15.16169038701223
H-2A R/B                
1 38341U 12025E   21290.27806153  .00000314  00000-0  43994-4 0  9996
2 38341  98.5249 124.1138 0056379 107.8550 252.8823 14.84297686509654
CUSAT 2 & FALCON 9 R/B  
1 39271U 13055G   21290.19963637  .00013362  00000-0  30544-3 0  9998
2 39271  80.9598 100.9614 0560943 139.6418 224.7850 14.54938191421328
CZ-2C R/B               
1 39364U 13059B   21290.25995345  .00002531  00000-0  90982-4 0  9992
2 39364  97.1994 346.8945 0047585 118.6535 241.9503 15.28460790443077
SL-4 R/B                
1 39679U 14021B   21290.20232336  .00001209  00000-0  74789-4 0  9998
2 39679  51.6167   7.3076 0169189 193.2983 166.3500 15.07279423412732
ALOS-2                  
1 39766U 14029A   21290.53530144 -.00000051  00000-0  34262-8 0  9998
2 39766  97.9219  26.1488 0001492  94.6864 265.4518 14.79471299399715
CZ-2C R/B               
1 40306U 14071B   21290.14137759  .00008718  00000-0  15602-3 0  9998
2 40306  97.3846 250.4018 0013073 180.0103 180.1151 15.50140345389127
SL-27 R/B               
1 40354U 14084B   21290.18927286  .00002156  00000-0  51517-4 0  9997
2 40354  74.7360 100.2434 0035409  42.0247 318.3672 15.41515637383494
YAOGAN 29               
1 41038U 15069A   21290.53376500  .00000092  00000-0  18939-4 0  9995
2 41038  98.0469 284.8325 0002160  94.7865 265.3591 14.80532059318341
ASTRO-H (HITOMI)        
1 41337U 16012A   21289.36818223  .00000543  00000-0  36902-4 0  9999
2 41337  31.0040 168.3535 0012358 194.3535 165.6750 14.98921228310468
HXMT (HUIYAN)           
1 42758U 17034A   21290.36042486  .00001200  00000-0  87304-4 0  9997
2 42758  43.0165 243.9027 0008481 210.3680 285.2680 15.09374096239431
CZ-2C R/B               
1 43521U 18054D   21290.07230672  .00001493  00000-0  81511-4 0  9991
2 43521  35.1540  59.4912 0080633  91.9221 269.0730 15.11743860182812
AEOLUS                  
1 43600U 18066A   21290.26513155  .00044679  00000-0  17735-3 0  9992
2 43600  96.7160 295.1915 0007997 110.7390 249.4741 15.86553382182568
SAOCOM 1A               
1 43641U 18076A   21290.43980824  .00000103  00000-0  19507-4 0  9992
2 43641  97.8879 115.6239 0001431  85.6941 274.4437 14.82149956163737
SAOCOM 1B               
1 46265U 20059A   21290.47097304  .00000100  00000-0  19101-4 0  9994
2 46265  97.8892 114.7222 0001460  86.6727 273.4664 14.82153406 61131
2020-063G               
1 46395U 20063G   21289.29691698  .00090468  14563-4  19235-3 0  9993
2 46395  50.2004  37.0854 0008276 299.5870  60.4294 15.98550606 64538
SL-4 R/B                
1 47547U 21008B   21290.28706410  .00152576  10429-4  46069-3 0  9994
2 47547  67.1352  27.8176 0319938 211.4050 146.7660 15.42036713 38991
TIANHE                  
1 48274U 21035A   21290.61106090  .00012739  00000-0  14840-3 0  9995
2 48274  41.4700 256.4288 0002195 255.9947 253.3236 15.61467521 26848
